format  = 'OEF2.0'       ! file format
rectype = 'ML'           ! record type (1L/ML)
refsys  = ECLM J2000     ! default reference system
END_OF_HEADER
17188
! Cartesian position and velocity vectors
CAR   9.48821119192915E-01  2.10522671697377E+00  5.28587763479324E-01 -9.18100219325255E-03 -2.20911885104748E-03 -5.13967308058704E-03
MJD     58596.526804683 TDT
MAG  15.832  0.150
! Non-grav parameters: model used, actual number in use, dimension
LSP   0  0    6
! RMS    1.67170E-03   2.47039E-03   4.95414E-04   1.97061E-05   8.18381E-06   5.61421E-06
! EIG   2.15648E-07   2.16895E-07   1.67064E-06   2.50331E-06   4.49373E-06   3.02379E-03
! WEA   0.55285   0.81698   0.16384  -0.00649   0.00258  -0.00185
COV   2.794585748269988E-06  4.129738913113361E-06  8.281722483108270E-07
COV  -3.283250357772135E-08  1.304057532138313E-08 -9.344321790345590E-09
COV   6.102823999739788E-06  1.223846233114259E-06 -4.851103045356934E-08
COV   1.928286789353532E-08 -1.380642058065639E-08  2.454347038748648E-07
COV  -9.729839547733831E-09  3.864643659819987E-09 -2.769196887029093E-09
COV   3.883297603958006E-10 -1.492756060541157E-10  1.105447031744023E-10
COV   6.697480910952088E-11 -4.242764016498455E-11  3.151936605018786E-11
NOR   1.115237897130812E+11 -7.103038617916499E+10 -1.436457862933890E+10
NOR   1.913774699400124E+11  9.781303064656734E+09  2.917819903294376E+10
NOR   5.271910422203284E+10 -2.105162772927917E+10  1.025757582016115E+10
NOR  -1.096762725351331E+11  1.523257137590074E+09  1.557003131221722E+11
NOR   2.919618671984890E+10  1.268019433581131E+09  9.886830359442194E+10
NOR   1.513351484535604E+13 -9.376264099209881E+12 -1.902944619267410E+12
NOR   6.939730742371536E+12 -2.804402120702580E+12  2.093453565178457E+13
!MOID  0.06493    0
!NODES  0.09386  0.64019
17188
! Keplerian elements: a, e, i, long. node, arg. peric., mean anomaly
KEP   2.2042769602007266E+00 0.633968648063362  29.2552923605672 269.8595282007042 287.2215383128479 299.3058606871904
MJD     58596.526804683 TDT
MAG  15.832  0.150
! Non-grav parameters: model used, actual number in use, dimension
LSP   0  0    6
! RMS    1.14755E-02   1.02142E-03   2.65753E-02   7.07348E-03   3.54167E-01   3.47457E-01
! EIG   4.62180E-07   1.67021E-06   1.27747E-05   3.84633E-05   4.15259E-04   1.44143E-02
! WEA   0.79610  -0.06954  -0.03214   0.00810  -0.42874   0.42009
COV   1.316872905301264E-04 -1.151902933349678E-05 -3.045265046224643E-04
COV   7.658230094313785E-05 -4.063872240701092E-03  3.979558822939365E-03
COV   1.043293744014342E-06  2.654258490743169E-05 -6.343305804114119E-06
COV   3.563461488293700E-04 -3.440330351173774E-04  7.062479965747506E-04
COV  -1.798878854174841E-04  9.396928370243000E-03 -9.213467630676490E-03
COV   5.003416536052675E-05 -2.356417513220051E-03  2.354885648289945E-03
COV   1.254342227738409E-01 -1.227108653118374E-01  1.207262303990904E-01
NOR   7.159113114900435E+09 -7.643420494684712E+10  3.979658694806941E+08
NOR   1.106530734096795E+09  8.359219827438711E+08  4.046477613869320E+08
NOR   2.815319845683316E+12  7.942790271148645E+08 -2.316682890957215E+10
NOR  -2.740579008166890E+10 -1.680146448490995E+10  5.615389277149407E+07
NOR   5.132737480015562E+07 -2.088161129513403E+06 -9.693075339398865E+06
NOR   2.519451627665752E+08  2.324455353852967E+08  1.327759110908512E+08
NOR   2.686213007122771E+08  1.626906802531694E+08  1.008178404832511E+08